[{"OBJECT_NAME":"BISONSAT","OBJECT_ID":"2015-058L","EPOCH":"2026-03-09T11:49:35.353056","MEAN_MOTION":15.13791398,"ECCENTRICITY":0.00792382,"INCLINATION":64.7598,"RA_OF_ASC_NODE":135.3937,"ARG_OF_PERICENTER":90.6713,"MEAN_ANOMALY":270.349,"EPHEMERIS_TYPE":0,"CLASSIFICATION_TYPE":"U","NORAD_CAT_ID":40974,"ELEMENT_SET_NO":999,"REV_AT_EPOCH":10051,"BSTAR":0.0006711096,"MEAN_MOTION_DOT":0.00012971,"MEAN_MOTION_DDOT":0},{"OBJECT_NAME":"STARLINK-30265","OBJECT_ID":"2023-122Q","EPOCH":"2026-03-09T02:41:42.936864","MEAN_MOTION":15.26741509,"ECCENTRICITY":0.00012252,"INCLINATION":43.0004,"RA_OF_ASC_NODE":95.3336,"ARG_OF_PERICENTER":290.4065,"MEAN_ANOMALY":69.6655,"EPHEMERIS_TYPE":0,"CLASSIFICATION_TYPE":"U","NORAD_CAT_ID":57646,"ELEMENT_SET_NO":999,"REV_AT_EPOCH":14212,"BSTAR":4.6145162e-5,"MEAN_MOTION_DOT":9.78e-6,"MEAN_MOTION_DDOT":0}]
